{"spkid": "50634411", "covariance": {"epoch": "2458066.5", "elements": [{"label": "e", "sigma": 2.97966202996574e-08, "name": "e", "title": "eccentricity", "value": ".5562807234105156", "units": null}, {"units": "au", "value": ".7942792580324947", "title": "perihelion distance", "sigma": 5.28069523111456e-08, "name": "q", "label": "q"}, {"sigma": 5.44261380452759e-06, "name": "tp", "title": "time of perihelion passage", "value": "2458211.545073355053", "units": "TDB", "label": "tp"}, {"label": "node", "sigma": 2.49437937683565e-05, "name": "om", "value": "218.6943100431716", "title": "longitude of the ascending node", "units": "deg"}, {"units": "deg", "value": "68.33536182515006", "title": "argument of perihelion", "sigma": 2.5749568865478e-05, "name": "w", "label": "peri"}, {"name": "i", "sigma": 7.40572914429372e-06, "title": "inclination", "value": "4.588297811591114", "units": "deg", "label": "i"}], "data": [["8.878385812819541E-16", "-1.573231065356666E-15", "9.84263853046963E-14", "8.214344729732263E-15", "1.78692387172965E-13", "-2.930977017437701E-15"], ["-1.573231065356666E-15", "2.788574212391604E-15", "-1.715683111077823E-13", "-1.508136074684861E-14", "-3.161075909136058E-13", "5.443565247339804E-15"], ["9.84263853046963E-14", "-1.715683111077823E-13", "2.96220450252343E-11", "3.098984733575417E-12", "2.869429218045482E-11", "3.761502958010231E-13"], ["8.214344729732263E-15", "-1.508136074684861E-14", "3.098984733575417E-12", "6.221928475583025E-10", "-6.162203693324136E-10", "-1.238142358535249E-10"], ["1.78692387172965E-13", "-3.161075909136058E-13", "2.869429218045482E-11", "-6.162203693324136E-10", "6.630402967579921E-10", "1.232010385949166E-10"], ["-2.930977017437701E-15", "5.443565247339804E-15", "3.761502958010231E-13", "-1.238142358535249E-10", "1.232010385949166E-10", "5.484482415864136E-11"]], "labels": ["e", "q", "tp", "node", "peri", "i"]}, "elements": [{"label": "e", "sigma": "2.9571E-8", "name": "e", "units": null, "title": "eccentricity", "value": ".5563498041865917"}, {"sigma": "1.0278E-9", "name": "a", "title": "semi-major axis", "value": "1.789878683496163", "units": "au", "label": "a"}, {"sigma": "5.257E-8", "name": "q", "units": "au", "value": ".7940800284153181", "title": "perihelion distance", "label": "q"}, {"title": "inclination; angle with respect to x-y ecliptic plane", "value": "4.586420185286812", "units": "deg", "name": "i", "sigma": "7.4007E-6", "label": "i"}, {"label": "node", "sigma": "2.4966E-5", "name": "om", "units": "deg", "value": "218.6082527312684", "title": "longitude of the ascending node"}, {"sigma": "2.578E-5", "name": "w", "units": "deg", "value": "68.46587345993257", "title": "argument of perihelion", "label": "peri"}, {"name": "ma", "sigma": "4.2948E-6", "units": "deg", "title": "mean anomaly", "value": "149.9862511869602", "label": "M"}, {"label": "tp", "value": "2460836.096306492860", "title": "time of perihelion passage", "units": "TDB", "sigma": "1.0134E-5", "name": "tp"}, {"label": "period", "sigma": "7.5334E-7", "name": "per", "units": "d", "value": "874.6490336573964", "title": "sidereal orbital period"}, {"sigma": "3.5451E-10", "name": "n", "value": ".4115936634545159", "title": "mean motion", "units": "deg/d", "label": "n"}, {"units": "au", "value": "2.785677338577008", "title": "aphelion distance", "name": "ad", "sigma": "1.5996E-9", "label": "Q"}], "epoch": "2461200.5"}